CTC2_L_00103001-01
1 45224U 26666SR  26037.47791667  .00000000  00000+0  00000-0 0  9997
2 45224  80.0000   0.0000 0000000   0.0000   0.0000 14.60983372    11
CTC2_L_00103001-02
1 45225U 26679HZ  26037.47791667  .00000000  00000+0  00000-0 0  9992
2 45225  80.0000   0.0000 0000000   0.0000  90.0000 14.60983372    11
CTC2_L_00103001-03
1 45226U 24832XK  26037.47791667  .00000000  00000+0  00000-0 0  9992
2 45226  80.0000   0.0000 0000000   0.0000 180.0000 14.60983372    12
CTC2_L_00103001-04
1 45227U 25635KA  26037.47791667  .00000000  00000+0  00000-0 0  9995
2 45227  80.0000   0.0000 0000000   0.0000 270.0000 14.60983372    13
CTC2_L_00103002-01
1 45228U 23014MJ  26037.47791667  .00000000  00000+0  00000-0 0  9995
2 45228  80.0000  12.0000 0000000   0.0000  12.0000 14.60983372    11
CTC2_L_00103002-02
1 45229U 23751MG  26037.47791667  .00000000  00000+0  00000-0 0  9994
2 45229  80.0000  12.0000 0000000   0.0000 102.0000 14.60983372    12
CTC2_L_00103002-03
1 45230U 22081YD  26037.47791667  .00000000  00000+0  00000-0 0  9991
2 45230  80.0000  12.0000 0000000   0.0000 192.0000 14.60983372    13
CTC2_L_00103002-04
1 45231U 23464AB  26037.47791667  .00000000  00000+0  00000-0 0  9998
2 45231  80.0000  12.0000 0000000   0.0000 282.0000 14.60983372    14
CTC2_L_00103003-01
1 45232U 26224ZL  26037.47791667  .00000000  00000+0  00000-0 0  9996
2 45232  80.0000  24.0000 0000000   0.0000  24.0000 14.60983372    12
CTC2_L_00103003-02
1 45233U 26754PM  26037.47791667  .00000000  00000+0  00000-0 0  9995
2 45233  80.0000  24.0000 0000000   0.0000 114.0000 14.60983372    13
CTC2_L_00103003-03
1 45234U 22850UN  26037.47791667  .00000000  00000+0  00000-0 0  9999
2 45234  80.0000  24.0000 0000000   0.0000 204.0000 14.60983372    14
CTC2_L_00103003-04
1 45235U 26589HE  26037.47791667  .00000000  00000+0  00000-0 0  9993
2 45235  80.0000  24.0000 0000000   0.0000 294.0000 14.60983372    14
CTC2_L_00103004-01
1 45236U 24714HS  26037.47791667  .00000000  00000+0  00000-0 0  9992
2 45236  80.0000  36.0000 0000000   0.0000  36.0000 14.60983372    12
CTC2_L_00103004-02
1 45237U 25817CR  26037.47791667  .00000000  00000+0  00000-0 0  9998
2 45237  80.0000  36.0000 0000000   0.0000 126.0000 14.60983372    13
CTC2_L_00103004-03
1 45238U 25638YA  26037.47791667  .00000000  00000+0  00000-0 0  9990
2 45238  80.0000  36.0000 0000000   0.0000 216.0000 14.60983372    14
CTC2_L_00103004-04
1 45239U 22029ID  26037.47791667  .00000000  00000+0  00000-0 0  9992
2 45239  80.0000  36.0000 0000000   0.0000 306.0000 14.60983372    15
CTC2_L_00103005-01
1 45240U 26041UA  26037.47791667  .00000000  00000+0  00000-0 0  9992
2 45240  80.0000  48.0000 0000000   0.0000  48.0000 14.60983372    13
CTC2_L_00103005-02
1 45241U 22268SS  26037.47791667  .00000000  00000+0  00000-0 0  9990
2 45241  80.0000  48.0000 0000000   0.0000 138.0000 14.60983372    14
CTC2_L_00103005-03
1 45242U 24994YY  26037.47791667  .00000000  00000+0  00000-0 0  9999
2 45242  80.0000  48.0000 0000000   0.0000 228.0000 14.60983372    15
CTC2_L_00103005-04
1 45243U 22258GQ  26037.47791667  .00000000  00000+0  00000-0 0  9991
2 45243  80.0000  48.0000 0000000   0.0000 318.0000 14.60983372    16
CTC2_L_00103006-01
1 45244U 23756LC  26037.47791667  .00000000  00000+0  00000-0 0  9996
2 45244  80.0000  60.0000 0000000   0.0000  60.0000 14.60983372    15
CTC2_L_00103006-02
1 45245U 22446QF  26037.47791667  .00000000  00000+0  00000-0 0  9992
2 45245  80.0000  60.0000 0000000   0.0000 150.0000 14.60983372    16
CTC2_L_00103006-03
1 45246U 25369IY  26037.47791667  .00000000  00000+0  00000-0 0  9990
2 45246  80.0000  60.0000 0000000   0.0000 240.0000 14.60983372    17
CTC2_L_00103006-04
1 45247U 26218US  26037.47791667  .00000000  00000+0  00000-0 0  9995
2 45247  80.0000  60.0000 0000000   0.0000 330.0000 14.60983372    18
CTC2_L_00103007-01
1 45248U 25511ZC  26037.47791667  .00000000  00000+0  00000-0 0  9991
2 45248  80.0000  72.0000 0000000   0.0000  72.0000 14.60983372    15
CTC2_L_00103007-02
1 45249U 25198MU  26037.47791667  .00000000  00000+0  00000-0 0  9993
2 45249  80.0000  72.0000 0000000   0.0000 162.0000 14.60983372    16
CTC2_L_00103007-03
1 45250U 25560QZ  26037.47791667  .00000000  00000+0  00000-0 0  9998
2 45250  80.0000  72.0000 0000000   0.0000 252.0000 14.60983372    18
CTC2_L_00103007-04
1 45251U 25689EA  26037.47791667  .00000000  00000+0  00000-0 0  9991
2 45251  80.0000  72.0000 0000000   0.0000 342.0000 14.60983372    19
CTC2_L_00103008-01
1 45252U 23224WI  26037.47791667  .00000000  00000+0  00000-0 0  9995
2 45252  80.0000  84.0000 0000000   0.0000  84.0000 14.60983372    16
CTC2_L_00103008-02
1 45253U 24237ST  26037.47791667  .00000000  00000+0  00000-0 0  9991
2 45253  80.0000  84.0000 0000000   0.0000 174.0000 14.60983372    17
CTC2_L_00103008-03
1 45254U 25662HT  26037.47791667  .00000000  00000+0  00000-0 0  9995
2 45254  80.0000  84.0000 0000000   0.0000 264.0000 14.60983372    18
CTC2_L_00103008-04
1 45255U 22799RV  26037.47791667  .00000000  00000+0  00000-0 0  9994
2 45255  80.0000  84.0000 0000000   0.0000 354.0000 14.60983372    19
CTC2_L_00103009-01
1 45256U 26786QE  26037.47791667  .00000000  00000+0  00000-0 0  9995
2 45256  80.0000  96.0000 0000000   0.0000  96.0000 14.60983372    16
CTC2_L_00103009-02
1 45257U 22381IN  26037.47791667  .00000000  00000+0  00000-0 0  9993
2 45257  80.0000  96.0000 0000000   0.0000 186.0000 14.60983372    17
CTC2_L_00103009-03
1 45258U 23966KJ  26037.47791667  .00000000  00000+0  00000-0 0  9994
2 45258  80.0000  96.0000 0000000   0.0000 276.0000 14.60983372    18
CTC2_L_00103009-04
1 45259U 23640HN  26037.47791667  .00000000  00000+0  00000-0 0  9994
2 45259  80.0000  96.0000 0000000   0.0000   6.0000 14.60983372    10
CTC2_L_00103010-01
1 45260U 26966NK  26037.47791667  .00000000  00000+0  00000-0 0  9990
2 45260  80.0000 108.0000 0000000   0.0000 108.0000 14.60983372    19
CTC2_L_00103010-02
1 45261U 26815IQ  26037.47791667  .00000000  00000+0  00000-0 0  9994
2 45261  80.0000 108.0000 0000000   0.0000 198.0000 14.60983372    19
CTC2_L_00103010-03
1 45262U 26995XB  26037.47791667  .00000000  00000+0  00000-0 0  9994
2 45262  80.0000 108.0000 0000000   0.0000 288.0000 14.60983372    10
CTC2_L_00103010-04
1 45263U 26649M   26037.47791667  .00000000  00000+0  00000-0 0  9991
2 45263  80.0000 108.0000 0000000   0.0000  18.0000 14.60983372    12
CTC2_L_00103011-01
1 45264U 25142NF  26037.47791667  .00000000  00000+0  00000-0 0  9999
2 45264  80.0000 120.0000 0000000   0.0000 120.0000 14.60983372    11
CTC2_L_00103011-02
1 45265U 24404NE  26037.47791667  .00000000  00000+0  00000-0 0  9990
2 45265  80.0000 120.0000 0000000   0.0000 210.0000 14.60983372    12
CTC2_L_00103011-03
1 45266U 26751KC  26037.47791667  .00000000  00000+0  00000-0 0  9998
2 45266  80.0000 120.0000 0000000   0.0000 300.0000 14.60983372    13
CTC2_L_00103011-04
1 45267U 24503HO  26037.47791667  .00000000  00000+0  00000-0 0  9992
2 45267  80.0000 120.0000 0000000   0.0000  30.0000 14.60983372    14
CTC2_L_00103012-01
1 45268U 26792YJ  26037.47791667  .00000000  00000+0  00000-0 0  9995
2 45268  80.0000 132.0000 0000000   0.0000 132.0000 14.60983372    11
CTC2_L_00103012-02
1 45269U 22150QR  26037.47791667  .00000000  00000+0  00000-0 0  9990
2 45269  80.0000 132.0000 0000000   0.0000 222.0000 14.60983372    12
CTC2_L_00103012-03
1 45270U 24443QP  26037.47791667  .00000000  00000+0  00000-0 0  9999
2 45270  80.0000 132.0000 0000000   0.0000 312.0000 14.60983372    14
CTC2_L_00103012-04
1 45271U 24972BV  26037.47791667  .00000000  00000+0  00000-0 0  9997
2 45271  80.0000 132.0000 0000000   0.0000  42.0000 14.60983372    15
CTC2_L_00103013-01
1 45272U 26666OD  26037.47791667  .00000000  00000+0  00000-0 0  9990
2 45272  80.0000 144.0000 0000000   0.0000 144.0000 14.60983372    12
CTC2_L_00103013-02
1 45273U 23329YN  26037.47791667  .00000000  00000+0  00000-0 0  9994
2 45273  80.0000 144.0000 0000000   0.0000 234.0000 14.60983372    13
CTC2_L_00103013-03
1 45274U 22961ZP  26037.47791667  .00000000  00000+0  00000-0 0  9996
2 45274  80.0000 144.0000 0000000   0.0000 324.0000 14.60983372    14
CTC2_L_00103013-04
1 45275U 23660EI  26037.47791667  .00000000  00000+0  00000-0 0  9994
2 45275  80.0000 144.0000 0000000   0.0000  54.0000 14.60983372    15
CTC2_L_00103014-01
1 45276U 26568EG  26037.47791667  .00000000  00000+0  00000-0 0  9995
2 45276  80.0000 156.0000 0000000   0.0000 156.0000 14.60983372    12
CTC2_L_00103014-02
1 45277U 24011CZ  26037.47791667  .00000000  00000+0  00000-0 0  9997
2 45277  80.0000 156.0000 0000000   0.0000 246.0000 14.60983372    13
CTC2_L_00103014-03
1 45278U 24813KF  26037.47791667  .00000000  00000+0  00000-0 0  9998
2 45278  80.0000 156.0000 0000000   0.0000 336.0000 14.60983372    14
CTC2_L_00103014-04
1 45279U 26482X   26037.47791667  .00000000  00000+0  00000-0 0  9993
2 45279  80.0000 156.0000 0000000   0.0000  66.0000 14.60983372    15
CTC2_L_00103015-01
1 45280U 23606GV  26037.47791667  .00000000  00000+0  00000-0 0  9990
2 45280  80.0000 168.0000 0000000   0.0000 168.0000 14.60983372    13
CTC2_L_00103015-02
1 45281U 22040FX  26037.47791667  .00000000  00000+0  00000-0 0  9992
2 45281  80.0000 168.0000 0000000   0.0000 258.0000 14.60983372    14
CTC2_L_00103015-03
1 45282U 23301FQ  26037.47791667  .00000000  00000+0  00000-0 0  9994
2 45282  80.0000 168.0000 0000000   0.0000 348.0000 14.60983372    15
CTC2_L_00103015-04
1 45283U 23161TA  26037.47791667  .00000000  00000+0  00000-0 0  9999
2 45283  80.0000 168.0000 0000000   0.0000  78.0000 14.60983372    16
CTC2_L_00103016-01
1 45284U 23634QV  26037.47791667  .00000000  00000+0  00000-0 0  9995
2 45284  80.0000 180.0000 0000000   0.0000 180.0000 14.60983372    15
CTC2_L_00103016-02
1 45285U 26991IQ  26037.47791667  .00000000  00000+0  00000-0 0  9995
2 45285  80.0000 180.0000 0000000   0.0000 270.0000 14.60983372    16
